CCSDS_OMM_VERS = 2.0
CREATION_DATE  = 
ORIGINATOR     = 

OBJECT_NAME    = CYGNUS NG-23
OBJECT_ID      = 2025-208A
CENTER_NAME    = EARTH
REF_FRAME      = TEME
TIME_SYSTEM    = UTC
MEAN_ELEMENT_THEORY = SGP/SGP4

EPOCH          = 2025-12-23T18:17:18.636000
MEAN_MOTION    = 15.49761422
ECCENTRICITY   = .00031718
INCLINATION    = 51.6321
RA_OF_ASC_NODE = 87.8933
ARG_OF_PERICENTER = 292.1344
MEAN_ANOMALY   = 67.9308

EPHEMERIS_TYPE = 0
CLASSIFICATION_TYPE = U
NORAD_CAT_ID   = 65616
ELEMENT_SET_NO = 999
REV_AT_EPOCH   = 22
BSTAR          = .20966669E-3
MEAN_MOTION_DOT = .11429E-3
MEAN_MOTION_DDOT = 0

CCSDS_OMM_VERS = 2.0
CREATION_DATE  = 
ORIGINATOR     = 

OBJECT_NAME    = DRAGONFLY
OBJECT_ID      = 1998-067XH
CENTER_NAME    = EARTH
REF_FRAME      = TEME
TIME_SYSTEM    = UTC
MEAN_ELEMENT_THEORY = SGP/SGP4

EPOCH          = 2025-12-23T20:25:05.088576
MEAN_MOTION    = 15.75691261
ECCENTRICITY   = .0007924
INCLINATION    = 51.6249
RA_OF_ASC_NODE = 78.7101
ARG_OF_PERICENTER = 343.6586
MEAN_ANOMALY   = 16.4157

EPHEMERIS_TYPE = 0
CLASSIFICATION_TYPE = U
NORAD_CAT_ID   = 65729
ELEMENT_SET_NO = 999
REV_AT_EPOCH   = 1491
BSTAR          = .11533636E-2
MEAN_MOTION_DOT = .184258E-2
MEAN_MOTION_DDOT = 0

CCSDS_OMM_VERS = 2.0
CREATION_DATE  = 
ORIGINATOR     = 

OBJECT_NAME    = 1998-067XK
OBJECT_ID      = 1998-067XK
CENTER_NAME    = EARTH
REF_FRAME      = TEME
TIME_SYSTEM    = UTC
MEAN_ELEMENT_THEORY = SGP/SGP4

EPOCH          = 2025-12-23T06:12:26.032896
MEAN_MOTION    = 15.67713225
ECCENTRICITY   = .00049619
INCLINATION    = 51.6292
RA_OF_ASC_NODE = 83.7873
ARG_OF_PERICENTER = 312.0823
MEAN_ANOMALY   = 47.9751

EPHEMERIS_TYPE = 0
CLASSIFICATION_TYPE = U
NORAD_CAT_ID   = 65731
ELEMENT_SET_NO = 999
REV_AT_EPOCH   = 1479
BSTAR          = .91991075E-3
MEAN_MOTION_DOT = .103596E-2
MEAN_MOTION_DDOT = 0

CCSDS_OMM_VERS = 2.0
CREATION_DATE  = 
ORIGINATOR     = 

OBJECT_NAME    = GHS-01
OBJECT_ID      = 1998-067XM
CENTER_NAME    = EARTH
REF_FRAME      = TEME
TIME_SYSTEM    = UTC
MEAN_ELEMENT_THEORY = SGP/SGP4

EPOCH          = 2025-12-23T11:05:04.304832
MEAN_MOTION    = 15.79591896
ECCENTRICITY   = .00088003
INCLINATION    = 51.6283
RA_OF_ASC_NODE = 79.8731
ARG_OF_PERICENTER = 346.0913
MEAN_ANOMALY   = 13.9844

EPHEMERIS_TYPE = 0
CLASSIFICATION_TYPE = U
NORAD_CAT_ID   = 65733
ELEMENT_SET_NO = 999
REV_AT_EPOCH   = 1487
BSTAR          = .14327729E-2
MEAN_MOTION_DOT = .275731E-2
MEAN_MOTION_DDOT = 0

CCSDS_OMM_VERS = 2.0
CREATION_DATE  = 
ORIGINATOR     = 

OBJECT_NAME    = YOTSUBA-KULOVER
OBJECT_ID      = 1998-067XN
CENTER_NAME    = EARTH
REF_FRAME      = TEME
TIME_SYSTEM    = UTC
MEAN_ELEMENT_THEORY = SGP/SGP4

EPOCH          = 2025-12-23T12:54:09.902304
MEAN_MOTION    = 15.60866000
ECCENTRICITY   = .00021899
INCLINATION    = 51.6292
RA_OF_ASC_NODE = 85.6499
ARG_OF_PERICENTER = 347.5579
MEAN_ANOMALY   = 12.5360

EPHEMERIS_TYPE = 0
CLASSIFICATION_TYPE = U
NORAD_CAT_ID   = 65941
ELEMENT_SET_NO = 999
REV_AT_EPOCH   = 1154
BSTAR          = .81748527E-3
MEAN_MOTION_DOT = .69745E-3
MEAN_MOTION_DDOT = 0

CCSDS_OMM_VERS = 2.0
CREATION_DATE  = 
ORIGINATOR     = 

OBJECT_NAME    = BOTAN
OBJECT_ID      = 1998-067XP
CENTER_NAME    = EARTH
REF_FRAME      = TEME
TIME_SYSTEM    = UTC
MEAN_ELEMENT_THEORY = SGP/SGP4

EPOCH          = 2025-12-23T23:07:45.899616
MEAN_MOTION    = 15.65195853
ECCENTRICITY   = .00032883
INCLINATION    = 51.6282
RA_OF_ASC_NODE = 82.4941
ARG_OF_PERICENTER = 330.2787
MEAN_ANOMALY   = 29.8020

EPHEMERIS_TYPE = 0
CLASSIFICATION_TYPE = U
NORAD_CAT_ID   = 65942
ELEMENT_SET_NO = 999
REV_AT_EPOCH   = 1162
BSTAR          = .10936719E-2
MEAN_MOTION_DOT = .111413E-2
MEAN_MOTION_DDOT = 0

CCSDS_OMM_VERS = 2.0
CREATION_DATE  = 
ORIGINATOR     = 

OBJECT_NAME    = E-KAGAKU-1
OBJECT_ID      = 1998-067XQ
CENTER_NAME    = EARTH
REF_FRAME      = TEME
TIME_SYSTEM    = UTC
MEAN_ELEMENT_THEORY = SGP/SGP4

EPOCH          = 2025-12-22T10:46:55.533504
MEAN_MOTION    = 15.60710313
ECCENTRICITY   = .00012968
INCLINATION    = 51.6319
RA_OF_ASC_NODE = 91.1385
ARG_OF_PERICENTER = 295.9007
MEAN_ANOMALY   = 64.1852

EPHEMERIS_TYPE = 0
CLASSIFICATION_TYPE = U
NORAD_CAT_ID   = 65943
ELEMENT_SET_NO = 999
REV_AT_EPOCH   = 1137
BSTAR          = .86344374E-3
MEAN_MOTION_DOT = .73283E-3
MEAN_MOTION_DDOT = 0

CCSDS_OMM_VERS = 2.0
CREATION_DATE  = 
ORIGINATOR     = 

OBJECT_NAME    = HRC MONOBLOCK CAMERA
OBJECT_ID      = 1998-067XR
CENTER_NAME    = EARTH
REF_FRAME      = TEME
TIME_SYSTEM    = UTC
MEAN_ELEMENT_THEORY = SGP/SGP4

EPOCH          = 2025-12-23T23:10:15.977280
MEAN_MOTION    = 15.54901889
ECCENTRICITY   = .00021517
INCLINATION    = 51.6306
RA_OF_ASC_NODE = 85.5033
ARG_OF_PERICENTER = 238.9680
MEAN_ANOMALY   = 121.1100

EPHEMERIS_TYPE = 0
CLASSIFICATION_TYPE = U
NORAD_CAT_ID   = 66052
ELEMENT_SET_NO = 999
REV_AT_EPOCH   = 1058
BSTAR          = .50040184E-3
MEAN_MOTION_DOT = .33738E-3
MEAN_MOTION_DDOT = 0

CCSDS_OMM_VERS = 2.0
CREATION_DATE  = 
ORIGINATOR     = 

OBJECT_NAME    = HTV-X1
OBJECT_ID      = 2025-241A
CENTER_NAME    = EARTH
REF_FRAME      = TEME
TIME_SYSTEM    = UTC
MEAN_ELEMENT_THEORY = SGP/SGP4

EPOCH          = 2025-12-23T18:17:18.636000
MEAN_MOTION    = 15.49761422
ECCENTRICITY   = .00031718
INCLINATION    = 51.6321
RA_OF_ASC_NODE = 87.8933
ARG_OF_PERICENTER = 292.1344
MEAN_ANOMALY   = 67.9308

EPHEMERIS_TYPE = 0
CLASSIFICATION_TYPE = U
NORAD_CAT_ID   = 66174
ELEMENT_SET_NO = 999
REV_AT_EPOCH   = 51
BSTAR          = .20966669E-3
MEAN_MOTION_DOT = .11429E-3
MEAN_MOTION_DDOT = 0

CCSDS_OMM_VERS = 2.0
CREATION_DATE  = 
ORIGINATOR     = 

OBJECT_NAME    = SZ-21 MODULE
OBJECT_ID      = 2025-246C
CENTER_NAME    = EARTH
REF_FRAME      = TEME
TIME_SYSTEM    = UTC
MEAN_ELEMENT_THEORY = SGP/SGP4

EPOCH          = 2025-12-23T06:36:43.308864
MEAN_MOTION    = 15.63020660
ECCENTRICITY   = .00050381
INCLINATION    = 41.4773
RA_OF_ASC_NODE = 311.7518
ARG_OF_PERICENTER = 316.6622
MEAN_ANOMALY   = 43.3822

EPHEMERIS_TYPE = 0
CLASSIFICATION_TYPE = U
NORAD_CAT_ID   = 66515
ELEMENT_SET_NO = 999
REV_AT_EPOCH   = 609
BSTAR          = .303255E-3
MEAN_MOTION_DOT = .28121E-3
MEAN_MOTION_DDOT = 0

CCSDS_OMM_VERS = 2.0
CREATION_DATE  = 
ORIGINATOR     = 

OBJECT_NAME    = SHENZHOU-22
OBJECT_ID      = 2025-272A
CENTER_NAME    = EARTH
REF_FRAME      = TEME
TIME_SYSTEM    = UTC
MEAN_ELEMENT_THEORY = SGP/SGP4

EPOCH          = 2025-12-23T22:08:03.098976
MEAN_MOTION    = 15.59613430
ECCENTRICITY   = .00080636
INCLINATION    = 41.4684
RA_OF_ASC_NODE = 308.7959
ARG_OF_PERICENTER = 129.7983
MEAN_ANOMALY   = 230.3567

EPHEMERIS_TYPE = 0
CLASSIFICATION_TYPE = U
NORAD_CAT_ID   = 66645
ELEMENT_SET_NO = 999
REV_AT_EPOCH   = 26550
BSTAR          = .17429265E-3
MEAN_MOTION_DOT = .1399E-3
MEAN_MOTION_DDOT = 0

