CYGNUS NG-23            
1 65616U 25208A   25357.76202125  .00011429  00000+0  20967-3 0  9991
2 65616  51.6321  87.8933 0003171 292.1344  67.9308 15.49761422   227
DRAGONFLY               
1 65729U 98067XH  25357.85075333  .00184258  00000+0  11534-2 0  9998
2 65729  51.6249  78.7101 0007924 343.6586  16.4157 15.75691261 14911
1998-067XK              
1 65731U 98067XK  25357.25863464  .00103596  00000+0  91991-3 0  9997
2 65731  51.6292  83.7873 0004961 312.0823  47.9751 15.67713225 14797
GHS-01                  
1 65733U 98067XM  25357.46185538  .00275731  00000+0  14328-2 0  9990
2 65733  51.6283  79.8731 0008800 346.0913  13.9844 15.79591896 14877
YOTSUBA-KULOVER         
1 65941U 98067XN  25357.53761461  .00069745  00000+0  81749-3 0  9992
2 65941  51.6292  85.6499 0002189 347.5579  12.5360 15.60866000 11543
BOTAN                   
1 65942U 98067XP  25357.96372569  .00111413  00000+0  10937-2 0  9997
2 65942  51.6282  82.4941 0003288 330.2787  29.8020 15.65195853 11620
E-KAGAKU-1              
1 65943U 98067XQ  25356.44925386  .00073283  00000+0  86344-3 0  9999
2 65943  51.6319  91.1385 0001296 295.9007  64.1852 15.60710313 11376
HRC MONOBLOCK CAMERA    
1 66052U 98067XR  25357.96546270  .00033738  00000+0  50040-3 0  9995
2 66052  51.6306  85.5033 0002152 238.9680 121.1100 15.54901889 10582
HTV-X1                  
1 66174U 25241A   25357.76202125  .00011429  00000+0  20967-3 0  9998
2 66174  51.6321  87.8933 0003171 292.1344  67.9308 15.49761422   519
SZ-21 MODULE            
1 66515U 25246C   25357.27550126  .00028121  00000+0  30326-3 0  9992
2 66515  41.4773 311.7518 0005038 316.6622  43.3822 15.63020660  6095
SHENZHOU-22             
1 66645U 25272A   25357.92225809  .00013990  00000+0  17429-3 0  9991
2 66645  41.4684 308.7959 0008063 129.7983 230.3567 15.59613430265504
